{
  "norad_id": 47762,
  "name": "STARLINK-2180",
  "history": [
    {
      "epoch": "2026-03-28T12:48:55.262880",
      "apogee_km": 404.15185984919754,
      "perigee_km": 401.94946572007757,
      "latitude_deg": 7.5177141135138,
      "longitude_deg": 87.4614031999372,
      "semi_major_axis_km": 6781.187662784637,
      "eccentricity": 0.00016239,
      "inclination_deg": 53.1616,
      "raan_deg": 128.9621,
      "arg_perigee_deg": 73.978,
      "mean_anomaly_deg": 286.141,
      "mean_motion_rev_day": 15.54691117
    }
  ]
}